#cP2012 11 26  0  0  0.00000000     288 u+U   IGb08 FIT  TUM
## 1716  86400.00000000   300.00000000 56257 0.0000000000000
+    3   J01E11E12  0  0  0  0  0  0  0  0  0  0  0  0  0  0
+          0  0  0  0  0  0  0  0  0  0  0  0  0  0  0  0  0
+          0  0  0  0  0  0  0  0  0  0  0  0  0  0  0  0  0
+          0  0  0  0  0  0  0  0  0  0  0  0  0  0  0  0  0
+          0  0  0  0  0  0  0  0  0  0  0  0  0  0  0  0  0
++         2  1  1  0  0  0  0  0  0  0  0  0  0  0  0  0  0
++         0  0  0  0  0  0  0  0  0  0  0  0  0  0  0  0  0
++         0  0  0  0  0  0  0  0  0  0  0  0  0  0  0  0  0
++         0  0  0  0  0  0  0  0  0  0  0  0  0  0  0  0  0
++         0  0  0  0  0  0  0  0  0  0  0  0  0  0  0  0  0
%c E  cc GPS ccc cccc cccc cccc cccc ccccc ccccc ccccc ccccc
%c cc cc ccc ccc cccc cccc cccc cccc ccccc ccccc ccccc ccccc
%f  1.2500000  1.025000000  0.00000000000  0.000000000000000
%f  0.0000000  0.000000000  0.00000000000  0.000000000000000
%i    0    0    0    0      0      0      0      0         0
%i    0    0    0    0      0      0      0      0         0
/* Galileo+QZSS orbits for MGEX based on CONGO+MGEX data    
/* Technische Universitaet Muenchen (TUM)                   
/* Further information: www.iapg.bv.tum.de/mgex             
/* PCV:IGS08_1645 OL/AL:FES2004  NONE     YN ORB:CoN CLK:CoN
*  2012 11 26  6 40  0.00000000
PJ01 -26455.338329  24464.128749  27001.064658    351.458015
PE11  -1276.273902  21919.284002  19847.598847    820.665711
PE12 -16305.867097  23914.522859   6187.841221    593.135014
*  2012 11 26  6 45  0.00000000
PJ01 -26578.471637  24543.652235  26760.456432    351.458045
PE11  -1667.699448  22359.986972  19320.090010    820.781775
PE12 -16413.254240  24050.741934   5314.105401    593.160541
*  2012 11 26  6 50  0.00000000
PJ01 -26700.218287  24630.617106  26509.312226    351.457995
PE11  -2038.408499  22797.129843  18765.850887    820.897866
PE12 -16500.208520  24169.445777   4433.016818    593.186065
*  2012 11 26  6 55  0.00000000
PJ01 -26820.244314  24724.943910  26247.710663    351.457934
PE11  -2388.249915  23229.407147  18185.648287    821.013950
PE12 -16567.439109  24269.648074   3545.794516    593.211572
*  2012 11 26  7  0  0.00000000
PJ01 -26938.218320  24826.538290  25975.733998    351.457983
PE11  -2717.148574  23655.512872  17580.284953    821.130082
PE12 -16615.715128  24350.411630   2653.666051    593.237092
*  2012 11 26  7  5  0.00000000
PJ01 -27053.812094  24935.291063  25693.468136    351.457974
PE11  -3025.105382  24074.144977  16950.598438    821.246192
PE12 -16645.862739  24410.851768   1757.865781    593.262641
*  2012 11 26  7 10  0.00000000
PJ01 -27166.701217  25051.078341  25401.002653    351.457927
PE11  -3312.196983  24484.009892  16297.459962    821.362280
PE12 -16658.762019  24450.139568    859.633171    593.288141
*  2012 11 26  7 15  0.00000000
PJ01 -27276.565676  25173.761676  25098.430811    351.457932
PE11  -3578.575230  24883.826991  15621.773188    821.478426
PE12 -16655.343665  24467.504901    -39.788944    593.313641
*  2012 11 26  7 20  0.00000000
PJ01 -27383.090470  25303.188209  24785.849585    351.457927
PE11  -3824.466388  25272.333027  14924.472992    821.594566
PE12 -16636.585517  24462.239266   -939.156067    593.339213
*  2012 11 26  7 25  0.00000000
PJ01 -27485.966201  25439.190875  24463.359675    351.457864
PE11  -4050.170067  25648.286512  14206.524147    821.710656
PE12 -16603.508913  24433.698414  -1837.223774    593.364708
*  2012 11 26  7 30  0.00000000
PJ01 -27584.889671  25581.588605  24131.065532    351.457872
PE11  -4256.057904  26010.472019  13468.920010    821.826763
PE12 -16557.174906  24381.304757  -2732.749429    593.390229
*  2012 11 26  7 35  0.00000000
PJ01 -27679.564466  25730.186570  23789.075376    351.457867
PE11  -4442.572000  26357.704404  12712.681128    821.942817
PE12 -16498.680337  24304.549539  -3624.493916    593.415749
*  2012 11 26  7 40  0.00000000
PJ01 -27769.701536  25884.776432  23437.501220    351.457802
PE11  -4610.223105  26688.832922  11938.853832    822.058933
PE12 -16429.153791  24202.994772  -4511.223354    593.441278
*  2012 11 26  7 45  0.00000000
PJ01 -27855.019756  26045.136640  23076.458887    351.457741
PE11  -4759.588556  27002.745229  11148.508796    822.175095
PE12 -16349.751435  24076.274933  -5391.710801    593.466789
*  2012 11 26  7 50  0.00000000
PJ01 -27935.246487  26211.032732  22706.068031    351.457762
PE11  -4891.309996  27298.371255  10342.739539    822.291205
PE12 -16261.652771  23924.098409  -6264.737965    593.492285
*  2012 11 26  7 55  0.00000000
PJ01 -28010.118125  26382.217664  22326.452162    351.457686
PE11  -5006.090859  27574.686931   9522.660924    822.407287
PE12 -16166.056310  23746.248684  -7129.096882    593.517817
*  2012 11 26  8  0  0.00000000
PJ01 -28079.380630  26558.432174  21937.738657    351.457626
PE11  -5104.693645  27830.717764   8689.407599    822.523416
PE12 -16064.175177  23542.585269  -7983.591605    593.543353
*  2012 11 26  8  5  0.00000000
PJ01 -28142.790053  26739.405134  21540.058809    351.457612
PE11  -5187.936985  28065.542232   7844.132459    822.639545
PE12 -15957.232672  23313.044375  -8827.039828    593.568860
*  2012 11 26  8 10  0.00000000
PJ01 -28200.113040  26924.853992  21133.547792    351.457612
PE11  -5256.692508  28278.295021   6988.004986    822.755592
PE12 -15846.457794  23057.639305  -9658.274582    593.594390
*  2012 11 26  8 15  0.00000000
PJ01 -28251.127331  27114.485150  20718.344738    351.457502
PE11  -5311.881534  28468.170039   6122.209696    822.871674
PE12 -15733.080755  22776.460605 -10476.145791    593.619886
*  2012 11 26  8 20  0.00000000
PJ01 -28295.622231  27307.994425  20294.592724    351.457519
PE11  -5354.471578  28634.423256   5247.944460    822.987801
PE12 -15618.328486  22469.675925 -11279.521900    593.645443
*  2012 11 26  8 25  0.00000000
PJ01 -28333.399078  27505.067515  19862.438802    351.457510
PE11  -5385.472708  28776.375312   4366.418851    823.103960
PE12 -15503.420158  22137.529624 -12067.291436    593.670973
*  2012 11 26  8 30  0.00000000
PJ01 -28364.271684  27705.380472  19422.034013    351.457431
PE11  -5405.933746  28893.413913   3478.852477    823.220013
PE12 -15389.562742  21780.342117 -12838.364537    593.696532
*  2012 11 26  8 35  0.00000000
PJ01 -28388.066762  27908.600215  18973.533404    351.457372
PE11  -5416.938333  28984.995995   2586.473277    823.336113
PE12 -15277.946598  21398.508942 -13591.674476    593.722052
*  2012 11 26  8 40  0.00000000
PJ01 -28404.624333  28114.385045  18517.096051    351.457399
PE11  -5419.600882  29050.649647   1690.515834    823.452237
PE12 -15169.741143  20992.499586 -14326.179123    593.747594
*  2012 11 26  8 45  0.00000000
PJ01 -28413.798121  28322.385189  18052.885065    351.457325
PE11  -5415.062419  29089.975797    792.219654    823.568246
PE12 -15066.090585  20562.856039 -15040.862399    593.773088
*  2012 11 26  8 50  0.00000000
PJ01 -28415.455904  28532.243359  17581.067613    351.457261
PE11  -5404.486322  29102.649637   -107.172542    823.684389
PE12 -14968.109746  20110.191115 -15734.735672    593.798654
*  2012 11 26  8 55  0.00000000
PJ01 -28409.479878  28743.595330  17101.814931    351.457330
PE11  -5389.054006  29088.421806  -1006.416551    823.800482
PE12 -14876.880003  19635.186513 -16406.839134    593.824178
*  2012 11 26  9  0  0.00000000
PJ01 -28395.766972  28956.070528  16615.302333    351.457265
PE11  -5369.960523  29047.119300  -1904.268398    823.916592
PE12 -14793.445337  19138.590650 -17056.243116    593.849732
*  2012 11 26  9  5  0.00000000
PJ01 -28374.229146  29169.292645  16121.709222    351.457194
PE11  -5348.410124  28978.646131  -2799.486069    824.032701
PE12 -14718.808519  18621.216261 -17682.049389    593.875287
*  2012 11 26  9 10  0.00000000
PJ01 -28344.793677  29382.880259  15621.219104    351.457209
PE11  -5325.611799  28882.983715  -3690.831229    824.148768
PE12 -14653.927449  18083.937777 -18283.392390    593.900828
*  2012 11 26  9 15  0.00000000
PJ01 -28307.403401  29596.447475  15114.019589    351.457215
PE11  -5302.774781  28760.190993  -4577.070927    824.264831
PE12 -14599.711646  17527.688492 -18859.440428    593.926342
*  2012 11 26  9 20  0.00000000
PJ01 -28262.016955  29809.604573  14600.302399    351.457114
PE11  -5281.104074  28610.404291  -5456.979322    824.380897
PE12 -14557.018920  16953.457519 -19409.396830    593.951874
*  2012 11 26  9 25  0.00000000
PJ01 -28208.608965  30021.958678  14080.263374    351.457121
PE11  -5261.795975  28433.836910  -6329.339358    824.496992
PE12 -14526.652218  16362.286577 -19932.501039    593.977427
*  2012 11 26  9 30  0.00000000
PJ01 -28147.170232  30233.114431  13554.102468    351.457131
PE11  -5246.033647  28230.778447  -7192.944468    824.613064
PE12 -14509.356677  15755.266558 -20428.029668    594.002977
*  2012 11 26  9 35  0.00000000
PJ01 -28077.707874  30442.674680  13022.023756    351.457122
PE11  -5234.982721  28001.593867  -8046.600227    824.729194
PE12 -14505.816864  15133.533970 -20895.297494    594.028556
*  2012 11 26  9 40  0.00000000
PJ01 -28000.245456  30650.241171  12484.235421    351.457064
PE11  -5229.786979  27746.722301  -8889.126018    824.845362
PE12 -14516.654257  14498.267185 -21333.658410    594.054089
*  2012 11 26  9 45  0.00000000
PJ01 -27914.823071  30855.415264  11940.949758    351.457064
PE11  -5231.564096  27466.675601  -9719.356654    824.961524
PE12 -14542.424920  13850.682572 -21742.506307    594.079642
*  2012 11 26  9 50  0.00000000
PJ01 -27821.497417  31057.798632  11392.383159    351.457020
PE11  -5241.401492  27162.036633 -10536.143997    825.077624
PE12 -14583.617437  13192.030475 -22121.275918    594.105200
*  2012 11 26  9 55  0.00000000
PJ01 -27720.341826  31256.993991  10838.756101    351.456954
PE11  -5260.352282  26833.457341 -11338.358543    825.193806
PE12 -14640.651068  12523.591094 -22469.443595    594.130727
EOF
